{
  "type": "FeatureCollection",
  "features": [
    {
      "properties": {
        "fill-opacity": 0.33,
        "fillColor": "#bf4040",
        "opacity": 0.33,
        "fill": "#bf4040",
        "fillOpacity": 0.33,
        "color": "#bf4040",
        "contour": 15,
        "metric": "time"
      },
      "geometry": {
        "coordinates": [
          [
            [
              73.79463,
              20.036082
            ],
            [
              73.793906,
              20.032644
            ],
            [
              73.795075,
              20.032089
            ],
            [
              73.795226,
              20.031644
            ],
            [
              73.79463,
              20.03098
            ],
            [
              73.79263,
              20.030782
            ],
            [
              73.792168,
              20.029644
            ],
            [
              73.79255,
              20.028644
            ],
            [
              73.79163,
              20.028415
            ],
            [
              73.79063,
              20.027364
            ],
            [
              73.78663,
              20.027814
            ],
            [
              73.78563,
              20.027379
            ],
            [
              73.784565,
              20.027579
            ],
            [
              73.78363,
              20.029677
            ],
            [
              73.782169,
              20.028644
            ],
            [
              73.783079,
              20.028093
            ],
            [
              73.783139,
              20.026644
            ],
            [
              73.783913,
              20.025927
            ],
            [
              73.783921,
              20.023644
            ],
            [
              73.78363,
              20.023282
            ],
            [
              73.78163,
              20.023145
            ],
            [
              73.781251,
              20.022644
            ],
            [
              73.78463,
              20.021928
            ],
            [
              73.784855,
              20.020644
            ],
            [
              73.784368,
              20.020382
            ],
            [
              73.78263,
              20.020925
            ],
            [
              73.780807,
              20.018466
            ],
            [
              73.779511,
              20.018762
            ],
            [
              73.778755,
              20.017644
            ],
            [
              73.779858,
              20.015644
            ],
            [
              73.779806,
              20.014467
            ],
            [
              73.778109,
              20.014164
            ],
            [
              73.776761,
              20.012512
            ],
            [
              73.775069,
              20.012204
            ],
            [
              73.77463,
              20.011406
            ],
            [
              73.77363,
              20.011407
            ],
            [
              73.77263,
              20.012323
            ],
            [
              73.77048,
              20.012494
            ],
            [
              73.770665,
              20.013679
            ],
            [
              73.769971,
              20.014985
            ],
            [
              73.768253,
              20.015267
            ],
            [
              73.76663,
              20.017269
            ],
            [
              73.766075,
              20.017198
            ],
            [
              73.765647,
              20.016644
            ],
            [
              73.766407,
              20.014644
            ],
            [
              73.766136,
              20.014137
            ],
            [
              73.76563,
              20.013809
            ],
            [
              73.76463,
              20.015096
            ],
            [
              73.761953,
              20.01232
            ],
            [
              73.761369,
              20.012383
            ],
            [
              73.76063,
              20.013367
            ],
            [
              73.760013,
              20.01226
            ],
            [
              73.757972,
              20.011644
            ],
            [
              73.759654,
              20.010668
            ],
            [
              73.759647,
              20.009661
            ],
            [
              73.760319,
              20.009333
            ],
            [
              73.762271,
              20.010002
            ],
            [
              73.762963,
              20.009644
            ],
            [
              73.761729,
              20.007544
            ],
            [
              73.75963,
              20.007323
            ],
            [
              73.758957,
              20.007971
            ],
            [
              73.756558,
              20.007715
            ],
            [
              73.757517,
              20.006531
            ],
            [
              73.75771,
              20.005644
            ],
            [
              73.757008,
              20.004644
            ],
            [
              73.757037,
              20.003236
            ],
            [
              73.756512,
              20.002644
            ],
            [
              73.758872,
              20.001886
            ],
            [
              73.759891,
              20.000382
            ],
            [
              73.758892,
              19.999381
            ],
            [
              73.758313,
              19.99796
            ],
            [
              73.758142,
              19.995644
            ],
            [
              73.756167,
              19.995106
            ],
            [
              73.75563,
              19.994441
            ],
            [
              73.755355,
              19.994644
            ],
            [
              73.75463,
              20.002531
            ],
            [
              73.75407,
              20.001203
            ],
            [
              73.752572,
              20.000701
            ],
            [
              73.752547,
              19.999644
            ],
            [
              73.751119,
              19.997154
            ],
            [
              73.75063,
              19.997143
            ],
            [
              73.74963,
              19.998101
            ],
            [
              73.749235,
              19.997644
            ],
            [
              73.749041,
              19.996233
            ],
            [
              73.747003,
              19.993644
            ],
            [
              73.746491,
              19.993505
            ],
            [
              73.74563,
              19.994049
            ],
            [
              73.74463,
              19.992219
            ],
            [
              73.741191,
              19.991644
            ],
            [
              73.74163,
              19.991306
            ],
            [
              73.74363,
              19.9912
            ],
            [
              73.74563,
              19.99027
            ],
            [
              73.74863,
              19.990316
            ],
            [
              73.749354,
              19.989644
            ],
            [
              73.748913,
              19.988644
            ],
            [
              73.74963,
              19.987783
            ],
            [
              73.75112,
              19.989153
            ],
            [
              73.752874,
              19.989399
            ],
            [
              73.75363,
              19.990824
            ],
            [
              73.755815,
              19.990829
            ],
            [
              73.755925,
              19.989348
            ],
            [
              73.753766,
              19.987644
            ],
            [
              73.754543,
              19.986557
            ],
            [
              73.754371,
              19.983644
            ],
            [
              73.754692,
              19.982581
            ],
            [
              73.754304,
              19.981644
            ],
            [
              73.75563,
              19.980171
            ],
            [
              73.75763,
              19.982147
            ],
            [
              73.75963,
              19.982856
            ],
            [
              73.760853,
              19.982644
            ],
            [
              73.76263,
              19.984463
            ],
            [
              73.764499,
              19.984513
            ],
            [
              73.764964,
              19.983644
            ],
            [
              73.765806,
              19.983467
            ],
            [
              73.76863,
              19.984043
            ],
            [
              73.76963,
              19.98523
            ],
            [
              73.770399,
              19.984413
            ],
            [
              73.772216,
              19.983644
            ],
            [
              73.77363,
              19.980441
            ],
            [
              73.774083,
              19.98119
            ],
            [
              73.77463,
              19.981272
            ],
            [
              73.775161,
              19.980644
            ],
            [
              73.774973,
              19.9793
            ],
            [
              73.774421,
              19.978644
            ],
            [
              73.775648,
              19.975625
            ],
            [
              73.77363,
              19.974501
            ],
            [
              73.77263,
              19.974408
            ],
            [
              73.771666,
              19.971607
            ],
            [
              73.770098,
              19.971175
            ],
            [
              73.76963,
              19.969704
            ],
            [
              73.76763,
              19.968934
            ],
            [
              73.76663,
              19.967581
            ],
            [
              73.765584,
              19.967689
            ],
            [
              73.76363,
              19.966983
            ],
            [
              73.763449,
              19.966463
            ],
            [
              73.765337,
              19.964644
            ],
            [
              73.764818,
              19.964455
            ],
            [
              73.76479,
              19.963483
            ],
            [
              73.761123,
              19.95915
            ],
            [
              73.759482,
              19.958791
            ],
            [
              73.759184,
              19.958089
            ],
            [
              73.75848,
              19.957793
            ],
            [
              73.757526,
              19.956747
            ],
            [
              73.757458,
              19.955815
            ],
            [
              73.756575,
              19.955699
            ],
            [
              73.756477,
              19.954796
            ],
            [
              73.755587,
              19.954686
            ],
            [
              73.75552,
              19.953754
            ],
            [
              73.754378,
              19.953644
            ],
            [
              73.754221,
              19.953052
            ],
            [
              73.75363,
              19.952781
            ],
            [
              73.753605,
              19.951668
            ],
            [
              73.753012,
              19.951644
            ],
            [
              73.753637,
              19.951636
            ],
            [
              73.753674,
              19.952599
            ],
            [
              73.754659,
              19.952614
            ],
            [
              73.754764,
              19.953509
            ],
            [
              73.755689,
              19.953584
            ],
            [
              73.755869,
              19.954404
            ],
            [
              73.756723,
              19.95455
            ],
            [
              73.756971,
              19.955302
            ],
            [
              73.758086,
              19.955644
            ],
            [
              73.760238,
              19.958035
            ],
            [
              73.761905,
              19.958369
            ],
            [
              73.76326,
              19.960013
            ],
            [
              73.765607,
              19.961667
            ],
            [
              73.766454,
              19.961819
            ],
            [
              73.766652,
              19.962644
            ],
            [
              73.772107,
              19.966166
            ],
            [
              73.772742,
              19.967644
            ],
            [
              73.771844,
              19.968644
            ],
            [
              73.771597,
              19.969644
            ],
            [
              73.773236,
              19.970037
            ],
            [
              73.773541,
              19.970732
            ],
            [
              73.77463,
              19.971283
            ],
            [
              73.77563,
              19.971186
            ],
            [
              73.776504,
              19.971644
            ],
            [
              73.77563,
              19.971911
            ],
            [
              73.775505,
              19.972768
            ],
            [
              73.77763,
              19.97314
            ],
            [
              73.77863,
              19.972343
            ],
            [
              73.779603,
              19.972644
            ],
            [
              73.778499,
              19.974513
            ],
            [
              73.778751,
              19.974765
            ],
            [
              73.779737,
              19.974644
            ],
            [
              73.780297,
              19.973311
            ],
            [
              73.781443,
              19.972457
            ],
            [
              73.782604,
              19.972644
            ],
            [
              73.784485,
              19.974644
            ],
            [
              73.784543,
              19.97673
            ],
            [
              73.786266,
              19.976644
            ],
            [
              73.786461,
              19.975812
            ],
            [
              73.785254,
              19.973644
            ],
            [
              73.785485,
              19.972499
            ],
            [
              73.78963,
              19.973737
            ],
            [
              73.79063,
              19.972076
            ],
            [
              73.790875,
              19.972398
            ],
            [
              73.793801,
              19.972472
            ],
            [
              73.794267,
              19.975006
            ],
            [
              73.794929,
              19.975644
            ],
            [
              73.793298,
              19.976644
            ],
            [
              73.79363,
              19.977158
            ],
            [
              73.794925,
              19.976939
            ],
            [
              73.796913,
              19.973927
            ],
            [
              73.799049,
              19.973063
            ],
            [
              73.80072,
              19.971734
            ],
            [
              73.800202,
              19.969071
            ],
            [
              73.799408,
              19.968644
            ],
            [
              73.80063,
              19.968218
            ],
            [
              73.802145,
              19.970128
            ],
            [
              73.803864,
              19.970644
            ],
            [
              73.803227,
              19.971644
            ],
            [
              73.804233,
              19.97304
            ],
            [
              73.805103,
              19.973117
            ],
            [
              73.805776,
              19.972644
            ],
            [
              73.805149,
              19.971644
            ],
            [
              73.80563,
              19.969419
            ],
            [
              73.80663,
              19.97
            ],
            [
              73.806913,
              19.971361
            ],
            [
              73.807742,
              19.971531
            ],
            [
              73.808095,
              19.973178
            ],
            [
              73.808859,
              19.973414
            ],
            [
              73.809174,
              19.9741
            ],
            [
              73.81163,
              19.974143
            ],
            [
              73.816224,
              19.969238
            ],
            [
              73.818098,
              19.969112
            ],
            [
              73.820538,
              19.966552
            ],
            [
              73.821499,
              19.966513
            ],
            [
              73.82163,
              19.965686
            ],
            [
              73.822091,
              19.966644
            ],
            [
              73.821143,
              19.967157
            ],
            [
              73.820545,
              19.968644
            ],
            [
              73.820854,
              19.969419
            ],
            [
              73.821428,
              19.969644
            ],
            [
              73.819695,
              19.970644
            ],
            [
              73.821252,
              19.971644
            ],
            [
              73.81863,
              19.973442
            ],
            [
              73.816306,
              19.97432
            ],
            [
              73.816123,
              19.974644
            ],
            [
              73.817063,
              19.97521
            ],
            [
              73.817919,
              19.976644
            ],
            [
              73.81663,
              19.977295
            ],
            [
              73.815925,
              19.976348
            ],
            [
              73.815378,
              19.976392
            ],
            [
              73.815253,
              19.97702
            ],
            [
              73.81563,
              19.977485
            ],
            [
              73.815956,
              19.977317
            ],
            [
              73.816251,
              19.979644
            ],
            [
              73.81563,
              19.980452
            ],
            [
              73.81463,
              19.980195
            ],
            [
              73.81415,
              19.980644
            ],
            [
              73.81463,
              19.98113
            ],
            [
              73.81563,
              19.980854
            ],
            [
              73.816074,
              19.982088
            ],
            [
              73.81563,
              19.982725
            ],
            [
              73.81763,
              19.982108
            ],
            [
              73.818293,
              19.98498
            ],
            [
              73.819115,
              19.985129
            ],
            [
              73.819751,
              19.984522
            ],
            [
              73.820578,
              19.985644
            ],
            [
              73.818261,
              19.986275
            ],
            [
              73.81763,
              19.987807
            ],
            [
              73.816518,
              19.986756
            ],
            [
              73.815424,
              19.986849
            ],
            [
              73.81463,
              19.98596
            ],
            [
              73.81263,
              19.987537
            ],
            [
              73.811958,
              19.986315
            ],
            [
              73.81063,
              19.986273
            ],
            [
              73.810411,
              19.986644
            ],
            [
              73.810394,
              19.988879
            ],
            [
              73.81163,
              19.990993
            ],
            [
              73.81363,
              19.990548
            ],
            [
              73.81563,
              19.991196
            ],
            [
              73.815762,
              19.991644
            ],
            [
              73.813477,
              19.993491
            ],
            [
              73.813714,
              19.994728
            ],
            [
              73.81263,
              19.995105
            ],
            [
              73.812114,
              19.996128
            ],
            [
              73.810438,
              19.996644
            ],
            [
              73.81463,
              19.997016
            ],
            [
              73.815258,
              19.997644
            ],
            [
              73.815048,
              19.998062
            ],
            [
              73.81063,
              19.998451
            ],
            [
              73.810497,
              19.998776
            ],
            [
              73.811215,
              19.999058
            ],
            [
              73.81163,
              19.999889
            ],
            [
              73.816131,
              20.000644
            ],
            [
              73.814973,
              20.001987
            ],
            [
              73.81417,
              20.002184
            ],
            [
              73.814035,
              20.003049
            ],
            [
              73.8133,
              20.003644
            ],
            [
              73.814224,
              20.004644
            ],
            [
              73.814271,
              20.006002
            ],
            [
              73.815427,
              20.006644
            ],
            [
              73.814921,
              20.007644
            ],
            [
              73.81663,
              20.008117
            ],
            [
              73.81763,
              20.007307
            ],
            [
              73.819887,
              20.007644
            ],
            [
              73.81863,
              20.007941
            ],
            [
              73.81763,
              20.009092
            ],
            [
              73.81463,
              20.00929
            ],
            [
              73.814196,
              20.010644
            ],
            [
              73.816425,
              20.011848
            ],
            [
              73.817107,
              20.012644
            ],
            [
              73.81863,
              20.012838
            ],
            [
              73.81963,
              20.013817
            ],
            [
              73.82163,
              20.013921
            ],
            [
              73.82263,
              20.01487
            ],
            [
              73.825511,
              20.014762
            ],
            [
              73.825699,
              20.015644
            ],
            [
              73.82863,
              20.01654
            ],
            [
              73.830204,
              20.015644
            ],
            [
              73.83163,
              20.013206
            ],
            [
              73.832153,
              20.01412
            ],
            [
              73.833139,
              20.014644
            ],
            [
              73.833573,
              20.0157
            ],
            [
              73.833244,
              20.017644
            ],
            [
              73.83463,
              20.01833
            ],
            [
              73.835526,
              20.020747
            ],
            [
              73.838106,
              20.022167
            ],
            [
              73.838457,
              20.022816
            ],
            [
              73.83963,
              20.023086
            ],
            [
              73.840268,
              20.024005
            ],
            [
              73.84163,
              20.024203
            ],
            [
              73.84263,
              20.025333
            ],
            [
              73.843849,
              20.025424
            ],
            [
              73.844892,
              20.026382
            ],
            [
              73.84663,
              20.026493
            ],
            [
              73.846932,
              20.027341
            ],
            [
              73.849652,
              20.027621
            ],
            [
              73.849693,
              20.02858
            ],
            [
              73.850801,
              20.028644
            ],
            [
              73.849793,
              20.028807
            ],
            [
              73.84863,
              20.028116
            ],
            [
              73.84663,
              20.028056
            ],
            [
              73.84563,
              20.026942
            ],
            [
              73.843433,
              20.026841
            ],
            [
              73.843028,
              20.026245
            ],
            [
              73.84163,
              20.026131
            ],
            [
              73.840867,
              20.025406
            ],
            [
              73.83927,
              20.025003
            ],
            [
              73.83863,
              20.024319
            ],
            [
              73.837045,
              20.024228
            ],
            [
              73.836632,
              20.023641
            ],
            [
              73.835347,
              20.023361
            ],
            [
              73.83263,
              20.023431
            ],
            [
              73.83242,
              20.024644
            ],
            [
              73.829398,
              20.025412
            ],
            [
              73.82863,
              20.02621
            ],
            [
              73.828732,
              20.023644
            ],
            [
              73.827734,
              20.022644
            ],
            [
              73.828961,
              20.021975
            ],
            [
              73.828985,
              20.021289
            ],
            [
              73.827536,
              20.019644
            ],
            [
              73.827333,
              20.018644
            ],
            [
              73.825882,
              20.018392
            ],
            [
              73.82563,
              20.017601
            ],
            [
              73.82394,
              20.017334
            ],
            [
              73.82363,
              20.016466
            ],
            [
              73.82105,
              20.016223
            ],
            [
              73.82063,
              20.015432
            ],
            [
              73.817884,
              20.015389
            ],
            [
              73.817286,
              20.014644
            ],
            [
              73.81663,
              20.014493
            ],
            [
              73.815889,
              20.014644
            ],
            [
              73.815416,
              20.01643
            ],
            [
              73.81463,
              20.017135
            ],
            [
              73.813379,
              20.015644
            ],
            [
              73.813571,
              20.014644
            ],
            [
              73.81263,
              20.014132
            ],
            [
              73.81139,
              20.015404
            ],
            [
              73.811059,
              20.016644
            ],
            [
              73.812749,
              20.018644
            ],
            [
              73.81063,
              20.020222
            ],
            [
              73.809292,
              20.018981
            ],
            [
              73.806306,
              20.017967
            ],
            [
              73.807088,
              20.016644
            ],
            [
              73.806805,
              20.015468
            ],
            [
              73.80263,
              20.01527
            ],
            [
              73.800816,
              20.013457
            ],
            [
              73.800059,
              20.013214
            ],
            [
              73.79976,
              20.012513
            ],
            [
              73.79843,
              20.012444
            ],
            [
              73.799216,
              20.013057
            ],
            [
              73.799448,
              20.014644
            ],
            [
              73.799267,
              20.015281
            ],
            [
              73.797484,
              20.015644
            ],
            [
              73.798267,
              20.016007
            ],
            [
              73.798507,
              20.018767
            ],
            [
              73.800087,
              20.019186
            ],
            [
              73.800316,
              20.019957
            ],
            [
              73.80191,
              20.019924
            ],
            [
              73.80263,
              20.019222
            ],
            [
              73.80432,
              20.019644
            ],
            [
              73.803259,
              20.020273
            ],
            [
              73.802951,
              20.020965
            ],
            [
              73.801588,
              20.021602
            ],
            [
              73.801385,
              20.023888
            ],
            [
              73.802271,
              20.025002
            ],
            [
              73.80463,
              20.025072
            ],
            [
              73.805268,
              20.025644
            ],
            [
              73.803262,
              20.026276
            ],
            [
              73.803365,
              20.027644
            ],
            [
              73.802271,
              20.028285
            ],
            [
              73.80263,
              20.03122
            ],
            [
              73.799832,
              20.029441
            ],
            [
              73.798967,
              20.027306
            ],
            [
              73.798341,
              20.027355
            ],
            [
              73.798075,
              20.028089
            ],
            [
              73.796415,
              20.028429
            ],
            [
              73.796034,
              20.033239
            ],
            [
              73.796366,
              20.034644
            ],
            [
              73.795004,
              20.035018
            ],
            [
              73.79463,
              20.036082
            ]
          ]
        ],
        "type": "Polygon"
      },
      "type": "Feature"
    },
    {
      "properties": {
        "fill-opacity": 0.33,
        "fillColor": "#bfaa40",
        "opacity": 0.33,
        "fill": "#bfaa40",
        "fillOpacity": 0.33,
        "color": "#bfaa40",
        "contour": 10,
        "metric": "time"
      },
      "geometry": {
        "coordinates": [
          [
            [
              73.79663,
              20.017815
            ],
            [
              73.79463,
              20.015356
            ],
            [
              73.79363,
              20.018643
            ],
            [
              73.79163,
              20.015402
            ],
            [
              73.78963,
              20.018285
            ],
            [
              73.788541,
              20.017732
            ],
            [
              73.786372,
              20.015644
            ],
            [
              73.786578,
              20.014644
            ],
            [
              73.784837,
              20.013644
            ],
            [
              73.78463,
              20.013126
            ],
            [
              73.78163,
              20.013201
            ],
            [
              73.781069,
              20.012204
            ],
            [
              73.779465,
              20.011644
            ],
            [
              73.781066,
              20.01108
            ],
            [
              73.78163,
              20.010381
            ],
            [
              73.78263,
              20.011099
            ],
            [
              73.78379,
              20.009483
            ],
            [
              73.78217,
              20.009103
            ],
            [
              73.781877,
              20.008396
            ],
            [
              73.78063,
              20.007557
            ],
            [
              73.77863,
              20.008006
            ],
            [
              73.77763,
              20.007323
            ],
            [
              73.77627,
              20.008004
            ],
            [
              73.774179,
              20.007094
            ],
            [
              73.77163,
              20.006737
            ],
            [
              73.77163,
              20.00662
            ],
            [
              73.773046,
              20.00606
            ],
            [
              73.773413,
              20.004644
            ],
            [
              73.77263,
              20.003958
            ],
            [
              73.77163,
              20.003943
            ],
            [
              73.771041,
              20.004055
            ],
            [
              73.77063,
              20.005133
            ],
            [
              73.768645,
              20.003644
            ],
            [
              73.76898,
              20.001293
            ],
            [
              73.767658,
              20.000644
            ],
            [
              73.76717,
              19.999103
            ],
            [
              73.765875,
              19.997644
            ],
            [
              73.766523,
              19.995644
            ],
            [
              73.765338,
              19.995352
            ],
            [
              73.76363,
              19.996954
            ],
            [
              73.762217,
              19.995056
            ],
            [
              73.759312,
              19.994644
            ],
            [
              73.76386,
              19.992874
            ],
            [
              73.763279,
              19.990994
            ],
            [
              73.762667,
              19.990644
            ],
            [
              73.763376,
              19.99039
            ],
            [
              73.764598,
              19.990612
            ],
            [
              73.76563,
              19.990196
            ],
            [
              73.76863,
              19.991967
            ],
            [
              73.770856,
              19.99187
            ],
            [
              73.77098,
              19.990293
            ],
            [
              73.770171,
              19.989644
            ],
            [
              73.769954,
              19.988644
            ],
            [
              73.77063,
              19.98741
            ],
            [
              73.771106,
              19.989167
            ],
            [
              73.77363,
              19.988985
            ],
            [
              73.77463,
              19.989799
            ],
            [
              73.776195,
              19.988644
            ],
            [
              73.777327,
              19.988341
            ],
            [
              73.77763,
              19.987523
            ],
            [
              73.780868,
              19.986882
            ],
            [
              73.781805,
              19.984644
            ],
            [
              73.781052,
              19.981644
            ],
            [
              73.780293,
              19.97998
            ],
            [
              73.779488,
              19.979785
            ],
            [
              73.77863,
              19.978828
            ],
            [
              73.778558,
              19.977715
            ],
            [
              73.77762,
              19.977653
            ],
            [
              73.77763,
              19.976889
            ],
            [
              73.777691,
              19.977582
            ],
            [
              73.77863,
              19.977552
            ],
            [
              73.778836,
              19.978437
            ],
            [
              73.779725,
              19.978548
            ],
            [
              73.780016,
              19.979257
            ],
            [
              73.781903,
              19.98037
            ],
            [
              73.783053,
              19.981644
            ],
            [
              73.783305,
              19.982968
            ],
            [
              73.78463,
              19.984275
            ],
            [
              73.78663,
              19.985286
            ],
            [
              73.78963,
              19.985954
            ],
            [
              73.790984,
              19.984998
            ],
            [
              73.79163,
              19.983465
            ],
            [
              73.79263,
              19.983119
            ],
            [
              73.79363,
              19.984395
            ],
            [
              73.79563,
              19.98273
            ],
            [
              73.796825,
              19.984839
            ],
            [
              73.795294,
              19.985308
            ],
            [
              73.795374,
              19.985899
            ],
            [
              73.79863,
              19.985334
            ],
            [
              73.799057,
              19.985071
            ],
            [
              73.79963,
              19.98323
            ],
            [
              73.80263,
              19.981901
            ],
            [
              73.803065,
              19.982644
            ],
            [
              73.803848,
              19.982862
            ],
            [
              73.805378,
              19.980392
            ],
            [
              73.807071,
              19.980202
            ],
            [
              73.806593,
              19.982644
            ],
            [
              73.80525,
              19.983644
            ],
            [
              73.804661,
              19.986644
            ],
            [
              73.805368,
              19.988905
            ],
            [
              73.80596,
              19.988975
            ],
            [
              73.80663,
              19.987874
            ],
            [
              73.806853,
              19.988421
            ],
            [
              73.808169,
              19.988644
            ],
            [
              73.808054,
              19.989644
            ],
            [
              73.80701,
              19.990644
            ],
            [
              73.806548,
              19.992562
            ],
            [
              73.80563,
              19.993814
            ],
            [
              73.80463,
              19.992772
            ],
            [
              73.803832,
              19.993644
            ],
            [
              73.804782,
              19.994491
            ],
            [
              73.80433,
              19.995344
            ],
            [
              73.804404,
              19.996869
            ],
            [
              73.804912,
              19.996926
            ],
            [
              73.80563,
              19.995526
            ],
            [
              73.808995,
              19.997644
            ],
            [
              73.805406,
              19.999644
            ],
            [
              73.80477,
              20.001644
            ],
            [
              73.806452,
              20.002644
            ],
            [
              73.804008,
              20.003644
            ],
            [
              73.804263,
              20.005644
            ],
            [
              73.805006,
              20.006267
            ],
            [
              73.805445,
              20.007828
            ],
            [
              73.806972,
              20.008301
            ],
            [
              73.808253,
              20.01002
            ],
            [
              73.810873,
              20.010401
            ],
            [
              73.81163,
              20.011236
            ],
            [
              73.813824,
              20.011449
            ],
            [
              73.814093,
              20.01218
            ],
            [
              73.815758,
              20.012515
            ],
            [
              73.81591,
              20.013363
            ],
            [
              73.81863,
              20.013589
            ],
            [
              73.81873,
              20.014544
            ],
            [
              73.82091,
              20.014644
            ],
            [
              73.81863,
              20.014889
            ],
            [
              73.818477,
              20.013796
            ],
            [
              73.815831,
              20.013845
            ],
            [
              73.81525,
              20.013023
            ],
            [
              73.81363,
              20.012879
            ],
            [
              73.81263,
              20.011925
            ],
            [
              73.81063,
              20.011991
            ],
            [
              73.80963,
              20.011121
            ],
            [
              73.807252,
              20.011022
            ],
            [
              73.80563,
              20.00981
            ],
            [
              73.804394,
              20.010408
            ],
            [
              73.80363,
              20.011351
            ],
            [
              73.801847,
              20.009426
            ],
            [
              73.801383,
              20.009397
            ],
            [
              73.79863,
              20.011585
            ],
            [
              73.79763,
              20.011231
            ],
            [
              73.796382,
              20.012396
            ],
            [
              73.796352,
              20.012922
            ],
            [
              73.797416,
              20.013644
            ],
            [
              73.797934,
              20.014644
            ],
            [
              73.797093,
              20.015644
            ],
            [
              73.79718,
              20.017093
            ],
            [
              73.797621,
              20.017644
            ],
            [
              73.79663,
              20.017815
            ]
          ]
        ],
        "type": "Polygon"
      },
      "type": "Feature"
    },
    {
      "properties": {
        "fill-opacity": 0.33,
        "fillColor": "#6abf40",
        "opacity": 0.33,
        "fill": "#6abf40",
        "fillOpacity": 0.33,
        "color": "#6abf40",
        "contour": 5,
        "metric": "time"
      },
      "geometry": {
        "coordinates": [
          [
            [
              73.78963,
              20.007855
            ],
            [
              73.78763,
              20.00651
            ],
            [
              73.78533,
              20.005943
            ],
            [
              73.78363,
              20.00504
            ],
            [
              73.78363,
              20.004231
            ],
            [
              73.785941,
              20.003955
            ],
            [
              73.785838,
              20.002435
            ],
            [
              73.78463,
              20.001998
            ],
            [
              73.78363,
              20.002377
            ],
            [
              73.78263,
              20.002208
            ],
            [
              73.781546,
              20.000727
            ],
            [
              73.780836,
              20.000644
            ],
            [
              73.781212,
              19.999644
            ],
            [
              73.780222,
              19.998051
            ],
            [
              73.77963,
              19.99789
            ],
            [
              73.779256,
              19.997018
            ],
            [
              73.777345,
              19.996644
            ],
            [
              73.777241,
              19.996032
            ],
            [
              73.776598,
              19.995644
            ],
            [
              73.77763,
              19.995507
            ],
            [
              73.77863,
              19.996298
            ],
            [
              73.77963,
              19.995144
            ],
            [
              73.780243,
              19.99603
            ],
            [
              73.780955,
              19.995969
            ],
            [
              73.782262,
              19.994644
            ],
            [
              73.78208,
              19.993644
            ],
            [
              73.78263,
              19.993041
            ],
            [
              73.78363,
              19.99333
            ],
            [
              73.78463,
              19.992312
            ],
            [
              73.78663,
              19.99166
            ],
            [
              73.787202,
              19.992071
            ],
            [
              73.788002,
              19.992016
            ],
            [
              73.788114,
              19.991159
            ],
            [
              73.787416,
              19.990644
            ],
            [
              73.78863,
              19.989652
            ],
            [
              73.790272,
              19.992001
            ],
            [
              73.790986,
              19.992287
            ],
            [
              73.79163,
              19.99385
            ],
            [
              73.79263,
              19.993029
            ],
            [
              73.795171,
              19.993102
            ],
            [
              73.79663,
              19.993542
            ],
            [
              73.79763,
              19.993048
            ],
            [
              73.797999,
              19.994274
            ],
            [
              73.798612,
              19.994644
            ],
            [
              73.79747,
              19.995484
            ],
            [
              73.797552,
              19.996644
            ],
            [
              73.795962,
              19.999976
            ],
            [
              73.795807,
              20.000644
            ],
            [
              73.796568,
              20.001644
            ],
            [
              73.795211,
              20.002225
            ],
            [
              73.794366,
              20.003644
            ],
            [
              73.794844,
              20.004644
            ],
            [
              73.792322,
              20.005644
            ],
            [
              73.790495,
              20.007509
            ],
            [
              73.78963,
              20.007855
            ]
          ]
        ],
        "type": "Polygon"
      },
      "type": "Feature"
    }
  ],
  "properties": {
    "center": {
      "latitude": 19.999644,
      "longitude": 73.78963
    },
    "costing": "auto",
    "contours": [
      {
        "time": 5
      },
      {
        "time": 10
      },
      {
        "time": 15
      }
    ],
    "generated_at": "2026-01-20T10:54:20.867Z",
    "source": "Valhalla isochrone API"
  }
}