<?xml version="1.0" encoding="UTF-8"?>
<osm version="0.6" generator="cl-examples">
  <node id="1" lat="62.7375000" lon="7.1592000"/>
  <node id="2" lat="62.7375000" lon="7.1631000"/>
  <node id="3" lat="62.7375000" lon="7.1670000"/>
  <node id="4" lat="62.7375000" lon="7.1709000"/>
  <node id="5" lat="62.7375000" lon="7.1748000"/>
  <node id="6" lat="62.7375000" lon="7.1787000"/>
  <node id="7" lat="62.7375000" lon="7.1826000"/>
  <node id="8" lat="62.7393000" lon="7.1592000"/>
  <node id="9" lat="62.7393000" lon="7.1631000"/>
  <node id="10" lat="62.7393000" lon="7.1670000"/>
  <node id="11" lat="62.7393000" lon="7.1709000"/>
  <node id="12" lat="62.7393000" lon="7.1748000"/>
  <node id="13" lat="62.7393000" lon="7.1787000"/>
  <node id="14" lat="62.7393000" lon="7.1826000"/>
  <node id="15" lat="62.7411000" lon="7.1592000"/>
  <node id="16" lat="62.7411000" lon="7.1631000"/>
  <node id="17" lat="62.7411000" lon="7.1670000"/>
  <node id="18" lat="62.7411000" lon="7.1709000"/>
  <node id="19" lat="62.7411000" lon="7.1748000"/>
  <node id="20" lat="62.7411000" lon="7.1787000"/>
  <node id="21" lat="62.7411000" lon="7.1826000"/>
  <node id="22" lat="62.7429000" lon="7.1592000"/>
  <node id="23" lat="62.7429000" lon="7.1631000"/>
  <node id="24" lat="62.7429000" lon="7.1670000"/>
  <node id="25" lat="62.7429000" lon="7.1709000"/>
  <node id="26" lat="62.7429000" lon="7.1748000"/>
  <node id="27" lat="62.7429000" lon="7.1787000"/>
  <node id="28" lat="62.7429000" lon="7.1826000"/>
  <node id="29" lat="62.7447000" lon="7.1592000"/>
  <node id="30" lat="62.7447000" lon="7.1631000"/>
  <node id="31" lat="62.7447000" lon="7.1670000"/>
  <node id="32" lat="62.7447000" lon="7.1709000"/>
  <node id="33" lat="62.7447000" lon="7.1748000"/>
  <node id="34" lat="62.7447000" lon="7.1787000"/>
  <node id="35" lat="62.7447000" lon="7.1826000"/>
  <node id="36" lat="62.7465000" lon="7.1592000"/>
  <node id="37" lat="62.7465000" lon="7.1631000"/>
  <node id="38" lat="62.7465000" lon="7.1670000"/>
  <node id="39" lat="62.7465000" lon="7.1709000"/>
  <node id="40" lat="62.7465000" lon="7.1748000"/>
  <node id="41" lat="62.7465000" lon="7.1787000"/>
  <node id="42" lat="62.7465000" lon="7.1826000"/>
  <node id="43" lat="62.7483000" lon="7.1592000"/>
  <node id="44" lat="62.7483000" lon="7.1631000"/>
  <node id="45" lat="62.7483000" lon="7.1670000"/>
  <node id="46" lat="62.7483000" lon="7.1709000"/>
  <node id="47" lat="62.7483000" lon="7.1748000"/>
  <node id="48" lat="62.7483000" lon="7.1787000"/>
  <node id="49" lat="62.7483000" lon="7.1826000"/>
  <way id="1001">
    <nd ref="1"/>
    <nd ref="2"/>
    <nd ref="3"/>
    <nd ref="4"/>
    <nd ref="5"/>
    <nd ref="6"/>
    <nd ref="7"/>
    <tag k="highway" v="residential"/>
    <tag k="name" v="Row 0"/>
  </way>
  <way id="1002">
    <nd ref="8"/>
    <nd ref="9"/>
    <nd ref="10"/>
    <nd ref="11"/>
    <nd ref="12"/>
    <nd ref="13"/>
    <nd ref="14"/>
    <tag k="highway" v="residential"/>
    <tag k="name" v="Row 1"/>
  </way>
  <way id="1003">
    <nd ref="15"/>
    <nd ref="16"/>
    <nd ref="17"/>
    <nd ref="18"/>
    <nd ref="19"/>
    <nd ref="20"/>
    <nd ref="21"/>
    <tag k="highway" v="residential"/>
    <tag k="name" v="Row 2"/>
  </way>
  <way id="1004">
    <nd ref="22"/>
    <nd ref="23"/>
    <nd ref="24"/>
    <nd ref="25"/>
    <nd ref="26"/>
    <nd ref="27"/>
    <nd ref="28"/>
    <tag k="highway" v="residential"/>
    <tag k="name" v="Row 3"/>
    <tag k="oneway" v="yes"/>
  </way>
  <way id="1005">
    <nd ref="29"/>
    <nd ref="30"/>
    <nd ref="31"/>
    <nd ref="32"/>
    <nd ref="33"/>
    <nd ref="34"/>
    <nd ref="35"/>
    <tag k="highway" v="residential"/>
    <tag k="name" v="Row 4"/>
  </way>
  <way id="1006">
    <nd ref="36"/>
    <nd ref="37"/>
    <nd ref="38"/>
    <nd ref="39"/>
    <nd ref="40"/>
    <nd ref="41"/>
    <nd ref="42"/>
    <tag k="highway" v="footway"/>
  </way>
  <way id="1007">
    <nd ref="43"/>
    <nd ref="44"/>
    <nd ref="45"/>
    <nd ref="46"/>
    <nd ref="47"/>
    <nd ref="48"/>
    <nd ref="49"/>
    <tag k="highway" v="residential"/>
    <tag k="name" v="Row 6"/>
  </way>
  <way id="1008">
    <nd ref="1"/>
    <nd ref="8"/>
    <nd ref="15"/>
    <nd ref="22"/>
    <nd ref="29"/>
    <nd ref="36"/>
    <nd ref="43"/>
    <tag k="highway" v="residential"/>
  </way>
  <way id="1009">
    <nd ref="2"/>
    <nd ref="9"/>
    <nd ref="16"/>
    <nd ref="23"/>
    <nd ref="30"/>
    <nd ref="37"/>
    <nd ref="44"/>
    <tag k="highway" v="residential"/>
  </way>
  <way id="1010">
    <nd ref="3"/>
    <nd ref="10"/>
    <nd ref="17"/>
    <nd ref="24"/>
    <nd ref="31"/>
    <nd ref="38"/>
    <nd ref="45"/>
    <tag k="highway" v="residential"/>
  </way>
  <way id="1011">
    <nd ref="4"/>
    <nd ref="11"/>
    <nd ref="18"/>
    <nd ref="25"/>
    <nd ref="32"/>
    <nd ref="39"/>
    <nd ref="46"/>
    <tag k="highway" v="tertiary"/>
  </way>
  <way id="1012">
    <nd ref="5"/>
    <nd ref="12"/>
    <nd ref="19"/>
    <nd ref="26"/>
    <nd ref="33"/>
    <nd ref="40"/>
    <nd ref="47"/>
    <tag k="highway" v="residential"/>
  </way>
  <way id="1013">
    <nd ref="6"/>
    <nd ref="13"/>
    <nd ref="20"/>
    <nd ref="27"/>
    <nd ref="34"/>
    <nd ref="41"/>
    <nd ref="48"/>
    <tag k="highway" v="residential"/>
  </way>
  <way id="1014">
    <nd ref="7"/>
    <nd ref="14"/>
    <nd ref="21"/>
    <nd ref="28"/>
    <nd ref="35"/>
    <nd ref="42"/>
    <nd ref="49"/>
    <tag k="highway" v="residential"/>
  </way>
</osm>
